IRIDIUM 159             
1 43578U 18061K   25077.54803680  .00000017  00000+0 -93809-6 0  9991
2 43578  86.3929 247.0608 0002073  97.7813 262.3618 14.34217585348070
IRIDIUM 180             
1 43922U 19002A   25077.33822770  .00000073  00000+0  19082-4 0  9998
2 43922  86.4046 184.0972 0002220  96.4736 263.6713 14.34216614323651
IRIDIUM 176             
1 43923U 19002B   25077.43551797  .00003546  00000+0  55809-3 0  9992
2 43923  86.6168 184.0569 0002742  98.3280 261.8248 14.72273177332196
IRIDIUM 168             
1 43924U 19002C   25077.33188626  .00000757  00000+0  26325-3 0  9991
2 43924  86.4035 184.1630 0001829  88.4743 271.6662 14.34220841323633
IRIDIUM 173             
1 43925U 19002D   25077.38896800  .00000800  00000+0  27872-3 0  9994
2 43925  86.4044 184.0477 0002263  91.9758 268.1697 14.34217918323629
IRIDIUM 169             
1 43926U 19002E   25077.45350275  .00001192  00000+0  38298-3 0  9993
2 43926  86.4256 215.5907 0003126  66.1360 294.0166 14.38629077324701
IRIDIUM 172             
1 43927U 19002F   25077.38262591  .00000864  00000+0  30156-3 0  9999
2 43927  86.4045 184.0572 0002314  99.7700 260.3758 14.34218229323637
IRIDIUM 175             
1 43928U 19002G   25077.56623103  .00002557  00000+0  40175-3 0  9993
2 43928  86.1541 141.7048 0001703  65.2335 294.9059 14.72231064332201
